{"fetched_at":"2026-03-30T06:02:59Z","count":15439,"tles":[{"name":"STARLINK-11703 [DTC]","line1":"1 63759U 25089J   26087.61628948  .00238669  00000+0  18052-2 0  9992","line2":"2 63759  43.0068 178.0254 0002238 278.8405  81.2209 15.70911427 53118","category":"Starlink"}]}