{
  "norad_id": 63759,
  "name": "STARLINK-11703 [DTC]",
  "history": [
    {
      "epoch": "2026-03-28T14:47:27.411072",
      "apogee_km": 357.798082538161,
      "perigee_km": 354.78375260225584,
      "latitude_deg": -42.943226016760434,
      "longitude_deg": -104.93620992009528,
      "semi_major_axis_km": 6734.427917570208,
      "eccentricity": 0.0002238,
      "inclination_deg": 43.0068,
      "raan_deg": 178.0254,
      "arg_perigee_deg": 278.8405,
      "mean_anomaly_deg": 81.2209,
      "mean_motion_rev_day": 15.70911427
    }
  ]
}